SILVERSAT               
1 66909U 98067XV  26043.78661499  .00129510  00000+0  13215-2 0  9996
2 66909  51.6260 191.6138 0002621 286.8301  73.2406 15.64148018 11282
ISS OBJECT XW           
1 66910U 98067XW  26043.80604892  .00102181  00000+0  11176-2 0  9994
2 66910  51.6251 191.7381 0001815 319.3740  40.7118 15.62492126 11287
ISS OBJECT XX           
1 66911U 98067XX  26043.62569575  .00155735  00000+0  14994-2 0  9997
2 66911  51.6233 192.0300 0003356 305.0177  55.0503 15.65511224 11259
ISS OBJECT XY           
1 66912U 98067XY  26043.81247153  .00077252  00000+0  95585-3 0  9997
2 66912  51.6277 192.5393 0000339 282.0268  78.0687 15.59404778 11265
ISS OBJECT XZ           
1 67683U 98067XZ  26043.98235141  .00036636  00000+0  64970-3 0  9990
2 67683  51.6301 194.4215 0010729 106.2129 254.0041 15.49822128   956
GXIBA-1                 
1 67684U 98067YA  26043.85082038  .00061267  00000+0  10501-2 0  9990
2 67684  51.6297 195.0439 0012584 100.5958 259.6449 15.50533963   933
CORAL                   
1 67685U 98067YB  26043.98180152  .00039181  00000+0  69017-3 0  9998
2 67685  51.6299 194.4177 0012703 102.0547 258.1866 15.49955945   957
ISS OBJECT YC           
1 67686U 98067YC  26043.78795476  .00045458  00000+0  79685-3 0  9994
2 67686  51.6303 195.3741 0007793  76.6609 283.5248 15.50080405   924
LEOPARD                 
1 67687U 98067YD  26043.85307118  .00038021  00000+0  67286-3 0  9997
2 67687  51.6306 195.0588 0007896  78.6464 281.5412 15.49891622   851
ISS OBJECT YE           
1 67688U 98067YE  26043.78808798  .00045490  00000+0  79904-3 0  9998
2 67688  51.6307 195.3748 0007781  76.9093 283.2764 15.50022474   847
